{"type": "FeatureCollection", "features": [ {"type": "Feature", "properties": {"norad_id": 52912, "name": "GAOFEN-12 03", "group": "resource", "lat": 56.669610440259035, "lon": 74.5744255429737, "alt_km": 624.6300583226775, "timestamp": "2025-12-21T07:34:34.198326+00:00", "meta": {"OBJECT_NAME": "GAOFEN-12 03", "OBJECT_ID": "2022-069A", "EPOCH": "2025-12-20T22:54:35.273088", "MEAN_MOTION": 14.79626592, "ECCENTRICITY": 0.00019742, "INCLINATION": 97.8489, "RA_OF_ASC_NODE": 242.1135, "ARG_OF_PERICENTER": 52.719, "MEAN_ANOMALY": 307.4202, "EPHEMERIS_TYPE": 0, "CLASSIFICATION_TYPE": "U", "NORAD_CAT_ID": 52912, "ELEMENT_SET_NO": 999, "REV_AT_EPOCH": 18825, "BSTAR": 9.6559827e-05, "MEAN_MOTION_DOT": 6.73e-06, "MEAN_MOTION_DDOT": 0}, "tle": {"line1": "1 52912U 22069A   25354.95457492  .00000673  00000+0  96560-4 0  9997", "line2": "2 52912  97.8489 242.1135 0001974  52.7190 307.4202 14.79626592188252"}}, "geometry": {"type": "Point", "coordinates": [74.5744255429737, 56.669610440259035]}}, {"type": "Feature", "properties": {"norad_id": 54754, "name": "SWOT", "group": "resource", "lat": 7.594589626560168, "lon": 93.73414339323266, "alt_km": 894.8836303506832, "timestamp": "2025-12-21T07:34:34.198336+00:00", "meta": {"OBJECT_NAME": "SWOT", "OBJECT_ID": "2022-173A", "EPOCH": "2025-12-20T22:10:56.490816", "MEAN_MOTION": 14.00167979, "ECCENTRICITY": 3.579e-05, "INCLINATION": 77.6109, "RA_OF_ASC_NODE": 275.9417, "ARG_OF_PERICENTER": 90.9017, "MEAN_ANOMALY": 269.2175, "EPHEMERIS_TYPE": 0, "CLASSIFICATION_TYPE": "U", "NORAD_CAT_ID": 54754, "ELEMENT_SET_NO": 999, "REV_AT_EPOCH": 15420, "BSTAR": 3.119398e-06, "MEAN_MOTION_DOT": 2e-08, "MEAN_MOTION_DDOT": 0}, "tle": {"line1": "1 54754U 22173A   25354.92426494  .00000002  00000+0  31194-5 0  9993", "line2": "2 54754  77.6109 275.9417 0000357  90.9017 269.2175 14.00167979154201"}}, "geometry": {"type": "Point", "coordinates": [93.73414339323266, 7.594589626560168]}}, {"type": "Feature", "properties": {"norad_id": 57654, "name": "GAOFEN-12 04", "group": "resource", "lat": -63.97622489567606, "lon": -72.5067518770146, "alt_km": 638.0866689244394, "timestamp": "2025-12-21T07:34:34.198345+00:00", "meta": {"OBJECT_NAME": "GAOFEN-12 04", "OBJECT_ID": "2023-123A", "EPOCH": "2025-12-20T22:07:57.385344", "MEAN_MOTION": 14.79721209, "ECCENTRICITY": 0.00012262, "INCLINATION": 97.9127, "RA_OF_ASC_NODE": 270.5554, "ARG_OF_PERICENTER": 77.5754, "MEAN_ANOMALY": 282.5595, "EPHEMERIS_TYPE": 0, "CLASSIFICATION_TYPE": "U", "NORAD_CAT_ID": 57654, "ELEMENT_SET_NO": 999, "REV_AT_EPOCH": 12626, "BSTAR": 0.00012847484, "MEAN_MOTION_DOT": 9.14e-06, "MEAN_MOTION_DDOT": 0}, "tle": {"line1": "1 57654U 23123A   25354.92219196  .00000914  00000+0  12847-3 0  9994", "line2": "2 57654  97.9127 270.5554 0001226  77.5754 282.5595 14.79721209126263"}}, "geometry": {"type": "Point", "coordinates": [-72.5067518770146, -63.97622489567606]}}, {"type": "Feature", "properties": {"norad_id": 59065, "name": "PARS 1", "group": "resource", "lat": 61.828000249096085, "lon": -47.73914660278131, "alt_km": 428.88105865698617, "timestamp": "2025-12-21T07:34:34.198354+00:00", "meta": {"OBJECT_NAME": "PARS 1", "OBJECT_ID": "2024-039Q", "EPOCH": "2025-12-20T21:57:20.486016", "MEAN_MOTION": 15.41146234, "ECCENTRICITY": 0.00120096, "INCLINATION": 97.4642, "RA_OF_ASC_NODE": 326.0217, "ARG_OF_PERICENTER": 47.3824, "MEAN_ANOMALY": 312.8433, "EPHEMERIS_TYPE": 0, "CLASSIFICATION_TYPE": "U", "NORAD_CAT_ID": 59065, "ELEMENT_SET_NO": 999, "REV_AT_EPOCH": 10114, "BSTAR": 0.00020975834, "MEAN_MOTION_DOT": 8.624e-05, "MEAN_MOTION_DDOT": 0}, "tle": {"line1": "1 59065U 24039Q   25354.91482044  .00008624  00000+0  20976-3 0  9990", "line2": "2 59065  97.4642 326.0217 0012009  47.3824 312.8433 15.41146234101142"}}, "geometry": {"type": "Point", "coordinates": [-47.73914660278131, 61.828000249096085]}}, {"type": "Feature", "properties": {"norad_id": 59371, "name": "RESURS-P 4", "group": "resource", "lat": -69.99424281005824, "lon": -38.046000631479416, "alt_km": 477.1725636515948, "timestamp": "2025-12-21T07:34:34.198363+00:00", "meta": {"OBJECT_NAME": "RESURS-P 4", "OBJECT_ID": "2024-061A", "EPOCH": "2025-12-20T22:28:56.363808", "MEAN_MOTION": 15.32144967, "ECCENTRICITY": 9.752e-05, "INCLINATION": 97.2558, "RA_OF_ASC_NODE": 301.0989, "ARG_OF_PERICENTER": 63.1079, "MEAN_ANOMALY": 297.0263, "EPHEMERIS_TYPE": 0, "CLASSIFICATION_TYPE": "U", "NORAD_CAT_ID": 59371, "ELEMENT_SET_NO": 999, "REV_AT_EPOCH": 9646, "BSTAR": 9.4846505e-05, "MEAN_MOTION_DOT": 2.868e-05, "MEAN_MOTION_DDOT": 0}, "tle": {"line1": "1 59371U 24061A   25354.93676347  .00002868  00000+0  94847-4 0  9991", "line2": "2 59371  97.2558 301.0989 0000975  63.1079 297.0263 15.32144967 96466"}}, "geometry": {"type": "Point", "coordinates": [-38.046000631479416, -69.99424281005824]}}, {"type": "Feature", "properties": {"norad_id": 59625, "name": "LEGION 1", "group": "resource", "lat": 32.77403715222267, "lon": 65.00199698131854, "alt_km": 515.3924719867136, "timestamp": "2025-12-21T07:34:34.198372+00:00", "meta": {"OBJECT_NAME": "LEGION 1", "OBJECT_ID": "2024-081A", "EPOCH": "2025-12-20T21:55:45.992064", "MEAN_MOTION": 15.16552273, "ECCENTRICITY": 0.00036242, "INCLINATION": 97.5207, "RA_OF_ASC_NODE": 69.4827, "ARG_OF_PERICENTER": 280.1768, "MEAN_ANOMALY": 79.9056, "EPHEMERIS_TYPE": 0, "CLASSIFICATION_TYPE": "U", "NORAD_CAT_ID": 59625, "ELEMENT_SET_NO": 999, "REV_AT_EPOCH": 9051, "BSTAR": 0.00016819438, "MEAN_MOTION_DOT": 3.214e-05, "MEAN_MOTION_DDOT": 0}, "tle": {"line1": "1 59625U 24081A   25354.91372676  .00003214  00000+0  16819-3 0  9999", "line2": "2 59625  97.5207  69.4827 0003624 280.1768  79.9056 15.16552273 90510"}}, "geometry": {"type": "Point", "coordinates": [65.00199698131854, 32.77403715222267]}}, {"type": "Feature", "properties": {"norad_id": 59626, "name": "LEGION 2", "group": "resource", "lat": -33.04900826521221, "lon": -114.9619937828217, "alt_km": 519.5984768409198, "timestamp": "2025-12-21T07:34:34.198381+00:00", "meta": {"OBJECT_NAME": "LEGION 2", "OBJECT_ID": "2024-081B", "EPOCH": "2025-12-20T22:43:13.873440", "MEAN_MOTION": 15.16566512, "ECCENTRICITY": 0.0005635, "INCLINATION": 97.521, "RA_OF_ASC_NODE": 69.6033, "ARG_OF_PERICENTER": 257.7014, "MEAN_ANOMALY": 102.3588, "EPHEMERIS_TYPE": 0, "CLASSIFICATION_TYPE": "U", "NORAD_CAT_ID": 59626, "ELEMENT_SET_NO": 999, "REV_AT_EPOCH": 9052, "BSTAR": 0.00017870764, "MEAN_MOTION_DOT": 3.421e-05, "MEAN_MOTION_DDOT": 0}, "tle": {"line1": "1 59626U 24081B   25354.94668835  .00003421  00000+0  17871-3 0  9997", "line2": "2 59626  97.5210  69.6033 0005635 257.7014 102.3588 15.16566512 90527"}}, "geometry": {"type": "Point", "coordinates": [-114.9619937828217, -33.04900826521221]}}, {"type": "Feature", "properties": {"norad_id": 60182, "name": "ALOS-4 (DAICHI-4)", "group": "resource", "lat": 11.618553646057856, "lon": -88.31880118825714, "alt_km": 632.0006336491206, "timestamp": "2025-12-21T07:34:34.198390+00:00", "meta": {"OBJECT_NAME": "ALOS-4 (DAICHI-4)", "OBJECT_ID": "2024-123A", "EPOCH": "2025-12-20T19:27:23.067360", "MEAN_MOTION": 14.79476697, "ECCENTRICITY": 0.00013881, "INCLINATION": 97.9224, "RA_OF_ASC_NODE": 89.5428, "ARG_OF_PERICENTER": 101.339, "MEAN_ANOMALY": 258.7977, "EPHEMERIS_TYPE": 0, "CLASSIFICATION_TYPE": "U", "NORAD_CAT_ID": 60182, "ELEMENT_SET_NO": 999, "REV_AT_EPOCH": 7950, "BSTAR": 0.00018374076, "MEAN_MOTION_DOT": 1.321e-05, "MEAN_MOTION_DDOT": 0}, "tle": {"line1": "1 60182U 24123A   25354.81068365  .00001321  00000+0  18374-3 0  9997", "line2": "2 60182  97.9224  89.5428 0001388 101.3390 258.7977 14.79476697 79501"}}, "geometry": {"type": "Point", "coordinates": [-88.31880118825714, 11.618553646057856]}}, {"type": "Feature", "properties": {"norad_id": 60452, "name": "LEGION 3", "group": "resource", "lat": -28.389476387546416, "lon": -128.5830418884326, "alt_km": 518.0672845211038, "timestamp": "2025-12-21T07:34:34.198399+00:00", "meta": {"OBJECT_NAME": "LEGION 3", "OBJECT_ID": "2024-146A", "EPOCH": "2025-12-20T22:16:19.970688", "MEAN_MOTION": 15.1583926, "ECCENTRICITY": 0.00156807, "INCLINATION": 45.0017, "RA_OF_ASC_NODE": 266.2348, "ARG_OF_PERICENTER": 242.6749, "MEAN_ANOMALY": 117.2533, "EPHEMERIS_TYPE": 0, "CLASSIFICATION_TYPE": "U", "NORAD_CAT_ID": 60452, "ELEMENT_SET_NO": 999, "REV_AT_EPOCH": 7497, "BSTAR": 0.00016736751, "MEAN_MOTION_DOT": 2.997e-05, "MEAN_MOTION_DDOT": 0}, "tle": {"line1": "1 60452U 24146A   25354.92800892  .00002997  00000+0  16737-3 0  9994", "line2": "2 60452  45.0017 266.2348 0015680 242.6749 117.2533 15.15839260 74970"}}, "geometry": {"type": "Point", "coordinates": [-128.5830418884326, -28.389476387546416]}}, {"type": "Feature", "properties": {"norad_id": 60453, "name": "LEGION 4", "group": "resource", "lat": -29.358514218635204, "lon": -38.27228513010543, "alt_km": 516.6392085222906, "timestamp": "2025-12-21T07:34:34.198409+00:00", "meta": {"OBJECT_NAME": "LEGION 4", "OBJECT_ID": "2024-146B", "EPOCH": "2025-12-20T22:16:45.377472", "MEAN_MOTION": 15.15901836, "ECCENTRICITY": 0.00086723, "INCLINATION": 45.0393, "RA_OF_ASC_NODE": 358.0081, "ARG_OF_PERICENTER": 355.2518, "MEAN_ANOMALY": 4.8277, "EPHEMERIS_TYPE": 0, "CLASSIFICATION_TYPE": "U", "NORAD_CAT_ID": 60453, "ELEMENT_SET_NO": 999, "REV_AT_EPOCH": 7382, "BSTAR": 0.00019183422, "MEAN_MOTION_DOT": 3.475e-05, "MEAN_MOTION_DDOT": 0}, "tle": {"line1": "1 60453U 24146B   25354.92830298  .00003475  00000+0  19183-3 0  9998", "line2": "2 60453  45.0393 358.0081 0008672 355.2518   4.8277 15.15901836 73828"}}, "geometry": {"type": "Point", "coordinates": [-38.27228513010543, -29.358514218635204]}}]}